ALOS-4 (DAICHI-4)       
1 60182U 24123A   24206.19236257  .00004137  00000+0  56088-3 0  9992
2 60182  97.9219 302.3258 0001555 113.2893 246.8482 14.79448658  3410
